KUIPER-00061            
1 64521U 25134X   25257.58335648 -.01299997  00000+0 -68072-1 0  9997
2 64521  51.8838 291.0817 0008465  59.8191 300.0324 15.18506503  4591
KUIPER-00062            
1 64522U 25134Y   25256.83832264  .00005593  00000+0  38691-3 0  9991
2 64522  51.8869 300.3158 0010653  57.0859 303.1138 15.07049902 13816
KUIPER-00063            
1 64523U 25134Z   25257.58335648  .00015717  00000+0  18155-2 0  9990
2 64523  51.8945 296.7510 0004460  33.3770  44.9769 14.85716741  4648
KUIPER-00064            
1 64524U 25134AA  25257.58335648 -.00020849  00000+0 -16585-2 0  9990
2 64524  51.8892 294.5451 0005136 121.8480  59.4315 14.99603934  5689
KUIPER-00065            
1 64525U 25134AB  25257.58335648  .00042148  00000+0  49164-2 0  9994
2 64525  51.8979 299.0081 0011083  59.6466 211.2872 14.84742635  5621
KUIPER-00066            
1 64526U 25134AC  25257.09369940  .00011111  00000+0  55370-3 0  9996
2 64526  51.8871 296.0026 0005885  40.0637 320.0775 15.18008690 13899
KUIPER-00069            
1 64816U 25151A   25257.57248958 -.00007841  00000+0 -20188-3 0  9991
2 64816  51.8779 356.5608 0007024   0.4788 359.6204 15.37115555 10443
KUIPER-00070            
1 64817U 25151B   25257.58335648 -.00029700  00000+0 -31419-2 0  9992
2 64817  51.8974   4.3332 0008345  28.4899 198.4623 14.88609756  4198
